{"type": "FeatureCollection", "features": [ {"type": "Feature", "properties": {"norad_id": 39781, "name": "IRIDIUM 33 DEB", "group": "iridium-33-debris", "lat": 64.83011445159347, "lon": 64.10400125886694, "alt_km": 857.5820647602022, "timestamp": "2025-12-27T13:34:49.681508+00:00", "meta": {"OBJECT_NAME": "IRIDIUM 33 DEB", "OBJECT_ID": "1997-051AAN", "EPOCH": "2025-12-26T00:09:41.273280", "MEAN_MOTION": 14.20964815, "ECCENTRICITY": 0.01723668, "INCLINATION": 86.3698, "RA_OF_ASC_NODE": 252.511, "ARG_OF_PERICENTER": 230.4954, "MEAN_ANOMALY": 195.4493, "EPHEMERIS_TYPE": 0, "CLASSIFICATION_TYPE": "U", "NORAD_CAT_ID": 39781, "ELEMENT_SET_NO": 999, "REV_AT_EPOCH": 8295, "BSTAR": 0.0048537069, "MEAN_MOTION_DOT": 0.00012243, "MEAN_MOTION_DDOT": 0}, "tle": {"line1": "1 39781U 97051AAN 25360.00672770  .00012243  00000+0  48537-2 0  9995", "line2": "2 39781  86.3698 252.5110 0172366 230.4954 195.4493 14.20964815 82957"}}, "geometry": {"type": "Point", "coordinates": [64.10400125886694, 64.83011445159347]}}, {"type": "Feature", "properties": {"norad_id": 40996, "name": "IRIDIUM 33 DEB", "group": "iridium-33-debris", "lat": 9.93568892879809, "lon": -4.882110854717398, "alt_km": 570.1553837487572, "timestamp": "2025-12-27T13:34:49.681518+00:00", "meta": {"OBJECT_NAME": "IRIDIUM 33 DEB", "OBJECT_ID": "1997-051ABJ", "EPOCH": "2025-12-25T10:52:55.970112", "MEAN_MOTION": 14.97048042, "ECCENTRICITY": 0.0010436, "INCLINATION": 86.3519, "RA_OF_ASC_NODE": 355.4655, "ARG_OF_PERICENTER": 27.9702, "MEAN_ANOMALY": 124.5027, "EPHEMERIS_TYPE": 0, "CLASSIFICATION_TYPE": "U", "NORAD_CAT_ID": 40996, "ELEMENT_SET_NO": 999, "REV_AT_EPOCH": 62678, "BSTAR": 0.0031302, "MEAN_MOTION_DOT": 0.00036257, "MEAN_MOTION_DDOT": 0}, "tle": {"line1": "1 40996U 97051ABJ 25359.45342558  .00036257  00000+0  31302-2 0  9993", "line2": "2 40996  86.3519 355.4655 0010436  27.9702 124.5027 14.97048042626785"}}, "geometry": {"type": "Point", "coordinates": [-4.882110854717398, 9.93568892879809]}}, {"type": "Feature", "properties": {"norad_id": 40998, "name": "IRIDIUM 33 DEB", "group": "iridium-33-debris", "lat": -55.572099058094345, "lon": -127.38087699627799, "alt_km": 754.6761334079583, "timestamp": "2025-12-27T13:34:49.681529+00:00", "meta": {"OBJECT_NAME": "IRIDIUM 33 DEB", "OBJECT_ID": "1997-051ABL", "EPOCH": "2025-12-26T10:09:43.353216", "MEAN_MOTION": 14.4513968, "ECCENTRICITY": 0.0008602, "INCLINATION": 86.3812, "RA_OF_ASC_NODE": 47.8096, "ARG_OF_PERICENTER": 47.0142, "MEAN_ANOMALY": 8.9419, "EPHEMERIS_TYPE": 0, "CLASSIFICATION_TYPE": "U", "NORAD_CAT_ID": 40998, "ELEMENT_SET_NO": 999, "REV_AT_EPOCH": 6879, "BSTAR": 0.00044303, "MEAN_MOTION_DOT": 1.57e-05, "MEAN_MOTION_DDOT": 0}, "tle": {"line1": "1 40998U 97051ABL 25360.42341844  .00001570  00000+0  44303-3 0  9997", "line2": "2 40998  86.3812  47.8096 0008602  47.0142   8.9419 14.45139680 68790"}}, "geometry": {"type": "Point", "coordinates": [-127.38087699627799, -55.572099058094345]}}, {"type": "Feature", "properties": {"norad_id": 46435, "name": "IRIDIUM 33 DEB", "group": "iridium-33-debris", "lat": 19.555916658277024, "lon": 6.245781535266139, "alt_km": 722.6529079767433, "timestamp": "2025-12-27T13:34:49.681538+00:00", "meta": {"OBJECT_NAME": "IRIDIUM 33 DEB", "OBJECT_ID": "1997-051ABN", "EPOCH": "2025-12-27T06:57:44.436096", "MEAN_MOTION": 14.33202711, "ECCENTRICITY": 0.0205337, "INCLINATION": 86.2844, "RA_OF_ASC_NODE": 187.6872, "ARG_OF_PERICENTER": 228.8147, "MEAN_ANOMALY": 311.7599, "EPHEMERIS_TYPE": 0, "CLASSIFICATION_TYPE": "U", "NORAD_CAT_ID": 46435, "ELEMENT_SET_NO": 999, "REV_AT_EPOCH": 8124, "BSTAR": 0.011625292, "MEAN_MOTION_DOT": 0.00040605, "MEAN_MOTION_DDOT": 0}, "tle": {"line1": "1 46435U 97051ABN 25361.29009764  .00040605  00000+0  11625-1 0  9998", "line2": "2 46435  86.2844 187.6872 0205337 228.8147 311.7599 14.33202711 81241"}}, "geometry": {"type": "Point", "coordinates": [6.245781535266139, 19.555916658277024]}}, {"type": "Feature", "properties": {"norad_id": 46734, "name": "IRIDIUM 33 DEB", "group": "iridium-33-debris", "lat": 55.11488650026937, "lon": 170.97673123318447, "alt_km": 771.8253501019981, "timestamp": "2025-12-27T13:34:49.681549+00:00", "meta": {"OBJECT_NAME": "IRIDIUM 33 DEB", "OBJECT_ID": "1997-051ABR", "EPOCH": "2025-12-26T17:50:24.765216", "MEAN_MOTION": 14.41977609, "ECCENTRICITY": 0.00372857, "INCLINATION": 86.2643, "RA_OF_ASC_NODE": 356.7146, "ARG_OF_PERICENTER": 287.6839, "MEAN_ANOMALY": 250.0617, "EPHEMERIS_TYPE": 0, "CLASSIFICATION_TYPE": "U", "NORAD_CAT_ID": 46734, "ELEMENT_SET_NO": 999, "REV_AT_EPOCH": 63212, "BSTAR": 0.0011195467, "MEAN_MOTION_DOT": 3.719e-05, "MEAN_MOTION_DDOT": 0}, "tle": {"line1": "1 46734U 97051ABR 25360.74334219  .00003719  00000+0  11195-2 0  9993", "line2": "2 46734  86.2643 356.7146 0037285 287.6839 250.0617 14.41977609632128"}}, "geometry": {"type": "Point", "coordinates": [170.97673123318447, 55.11488650026937]}}, {"type": "Feature", "properties": {"norad_id": 46965, "name": "IRIDIUM 33 DEB", "group": "iridium-33-debris", "lat": 16.359683554842505, "lon": 153.04376133308463, "alt_km": 697.9976478744211, "timestamp": "2025-12-27T13:34:49.681559+00:00", "meta": {"OBJECT_NAME": "IRIDIUM 33 DEB", "OBJECT_ID": "1997-051ABX", "EPOCH": "2025-12-23T05:18:49.392864", "MEAN_MOTION": 14.60370511, "ECCENTRICITY": 0.00170224, "INCLINATION": 86.3362, "RA_OF_ASC_NODE": 336.0473, "ARG_OF_PERICENTER": 295.0187, "MEAN_ANOMALY": 82.9345, "EPHEMERIS_TYPE": 0, "CLASSIFICATION_TYPE": "U", "NORAD_CAT_ID": 46965, "ELEMENT_SET_NO": 999, "REV_AT_EPOCH": 62421, "BSTAR": 0.00084803208, "MEAN_MOTION_DOT": 4.13e-05, "MEAN_MOTION_DDOT": 0}, "tle": {"line1": "1 46965U 97051ABX 25357.22140501  .00004130  00000+0  84803-3 0  9992", "line2": "2 46965  86.3362 336.0473 0017022 295.0187  82.9345 14.60370511624214"}}, "geometry": {"type": "Point", "coordinates": [153.04376133308463, 16.359683554842505]}}, {"type": "Feature", "properties": {"norad_id": 46971, "name": "IRIDIUM 33 DEB", "group": "iridium-33-debris", "lat": 65.40020583746195, "lon": 138.10423264581698, "alt_km": 565.0723466504123, "timestamp": "2025-12-27T13:34:49.681569+00:00", "meta": {"OBJECT_NAME": "IRIDIUM 33 DEB", "OBJECT_ID": "1997-051ACD", "EPOCH": "2025-12-27T05:18:58.154688", "MEAN_MOTION": 14.98896542, "ECCENTRICITY": 0.00040569, "INCLINATION": 86.3391, "RA_OF_ASC_NODE": 326.3052, "ARG_OF_PERICENTER": 228.896, "MEAN_ANOMALY": 188.5701, "EPHEMERIS_TYPE": 0, "CLASSIFICATION_TYPE": "U", "NORAD_CAT_ID": 46971, "ELEMENT_SET_NO": 999, "REV_AT_EPOCH": 64447, "BSTAR": 0.0029453746, "MEAN_MOTION_DOT": 0.00035746, "MEAN_MOTION_DDOT": 0}, "tle": {"line1": "1 46971U 97051ACD 25361.22150642  .00035746  00000+0  29454-2 0  9998", "line2": "2 46971  86.3391 326.3052 0004056 228.8960 188.5701 14.98896542644471"}}, "geometry": {"type": "Point", "coordinates": [138.10423264581698, 65.40020583746195]}}, {"type": "Feature", "properties": {"norad_id": 46972, "name": "IRIDIUM 33 DEB", "group": "iridium-33-debris", "lat": -67.49528082066624, "lon": -138.20463703068904, "alt_km": 738.7221406243316, "timestamp": "2025-12-27T13:34:49.681579+00:00", "meta": {"OBJECT_NAME": "IRIDIUM 33 DEB", "OBJECT_ID": "1997-051ACE", "EPOCH": "2025-12-24T20:41:33.679968", "MEAN_MOTION": 14.50725222, "ECCENTRICITY": 0.00114655, "INCLINATION": 86.386, "RA_OF_ASC_NODE": 34.1849, "ARG_OF_PERICENTER": 73.1922, "MEAN_ANOMALY": 103.3991, "EPHEMERIS_TYPE": 0, "CLASSIFICATION_TYPE": "U", "NORAD_CAT_ID": 46972, "ELEMENT_SET_NO": 999, "REV_AT_EPOCH": 61748, "BSTAR": 0.00047832722, "MEAN_MOTION_DOT": 1.902e-05, "MEAN_MOTION_DDOT": 0}, "tle": {"line1": "1 46972U 97051ACE 25358.86219537  .00001902  00000+0  47833-3 0  9993", "line2": "2 46972  86.3860  34.1849 0011465  73.1922 103.3991 14.50725222617483"}}, "geometry": {"type": "Point", "coordinates": [-138.20463703068904, -67.49528082066624]}}, {"type": "Feature", "properties": {"norad_id": 46974, "name": "IRIDIUM 33 DEB", "group": "iridium-33-debris", "lat": 62.077586324103294, "lon": -88.21579078992798, "alt_km": 673.5731530410194, "timestamp": "2025-12-27T13:34:49.681590+00:00", "meta": {"OBJECT_NAME": "IRIDIUM 33 DEB", "OBJECT_ID": "1997-051ACG", "EPOCH": "2025-12-26T23:44:28.817952", "MEAN_MOTION": 14.44752736, "ECCENTRICITY": 0.00952094, "INCLINATION": 86.2979, "RA_OF_ASC_NODE": 99.0534, "ARG_OF_PERICENTER": 140.8624, "MEAN_ANOMALY": 219.9515, "EPHEMERIS_TYPE": 0, "CLASSIFICATION_TYPE": "U", "NORAD_CAT_ID": 46974, "ELEMENT_SET_NO": 999, "REV_AT_EPOCH": 57714, "BSTAR": 0.0042244845, "MEAN_MOTION_DOT": 0.00015541, "MEAN_MOTION_DDOT": 0}, "tle": {"line1": "1 46974U 97051ACG 25360.98922243  .00015541  00000+0  42245-2 0  9991", "line2": "2 46974  86.2979  99.0534 0095209 140.8624 219.9515 14.44752736577142"}}, "geometry": {"type": "Point", "coordinates": [-88.21579078992798, 62.077586324103294]}}, {"type": "Feature", "properties": {"norad_id": 46979, "name": "IRIDIUM 33 DEB", "group": "iridium-33-debris", "lat": 29.816655047731242, "lon": 43.7642808291079, "alt_km": 609.8175519771366, "timestamp": "2025-12-27T13:34:49.681601+00:00", "meta": {"OBJECT_NAME": "IRIDIUM 33 DEB", "OBJECT_ID": "1997-051ACM", "EPOCH": "2025-12-24T20:59:38.183136", "MEAN_MOTION": 14.90364123, "ECCENTRICITY": 0.002819, "INCLINATION": 86.3328, "RA_OF_ASC_NODE": 42.91, "ARG_OF_PERICENTER": 179.7106, "MEAN_ANOMALY": 180.4142, "EPHEMERIS_TYPE": 0, "CLASSIFICATION_TYPE": "U", "NORAD_CAT_ID": 46979, "ELEMENT_SET_NO": 999, "REV_AT_EPOCH": 35609, "BSTAR": 0.0040991, "MEAN_MOTION_DOT": 0.00040379, "MEAN_MOTION_DDOT": 0}, "tle": {"line1": "1 46979U 97051ACM 25358.87474749  .00040379  00000+0  40991-2 0  9997", "line2": "2 46979  86.3328  42.9100 0028190 179.7106 180.4142 14.90364123356090"}}, "geometry": {"type": "Point", "coordinates": [43.7642808291079, 29.816655047731242]}}]}